TIANMU-1 20             
1 58661U 23208B   26183.27361711  .00009750  00000+0  30824-3 0  9999
2 58661  97.4465 300.3040 0005582 267.0046  93.0558 15.32991930139733
TIANMU-1 21             
1 58662U 23208C   26183.30424237  .00010529  00000+0  30887-3 0  9992
2 58662  97.4524 303.0813 0005745 256.8747 103.1856 15.35346868139880
TIANMU-1 22             
1 58663U 23208D   26183.29980753  .00008499  00000+0  28395-3 0  9995
2 58663  97.4519 299.6025 0002191 290.1439  69.9566 15.31269206139648
TIANMU-1 15             
1 58700U 24004A   26182.84348373  .00008429  00000+0  32265-3 0  9992
2 58700  97.4664   9.0340 0005689 288.6642  71.3979 15.26798099138013
TIANMU-1 16             
1 58701U 24004B   26183.29258955  .00006238  00000+0  23885-3 0  9993
2 58701  97.4613   8.7069 0004510 307.6164  52.4665 15.26902119138084
TIANMU-1 17             
1 58702U 24004C   26183.27805591  .00006444  00000+0  24667-3 0  9994
2 58702  97.4640   9.1829 0004126 315.9322  44.1587 15.26900310138076
TIANMU-1 18             
1 58703U 24004D   26183.31897311  .00006408  00000+0  24593-3 0  9999
2 58703  97.4657   9.4852 0003408 289.9408  70.1464 15.26819291138082
INSAT-3DS               
1 58990U 24033A   26183.09980708 -.00000145  00000+0  00000+0 0  9993
2 58990   0.0710  97.0576 0001453 354.6746 306.3808  1.00269499 47215
METEOR-M2 4             
1 59051U 24039A   26183.30696307  .00000012  00000+0  25211-4 0  9999
2 59051  98.7018 142.4154 0008023 120.9511 239.2456 14.22431058121418
GOES 19                 
1 60133U 24119A   26183.21129517 -.00000238  00000+0  00000+0 0  9990
2 60133   0.0088 112.2517 0000530  44.0208 124.8580  1.00271317  7115
MTG-S1                  
1 64723U 25143A   26183.22602858  .00000002  00000+0  00000+0 0  9990
2 64723   0.5919 342.1233 0003042 269.6744 109.3795  1.00266147  3579
METOP-SGA1              
1 65159U 25172A   26183.15007703  .00000050  00000+0  43939-4 0  9992
2 65159  98.6637 242.5611 0007805  10.7823 349.3520 14.19817447 45910
FENGYUN 3H              
1 65815U 25219A   26183.26174727  .00000057  00000+0  47414-4 0  9995
2 65815  98.6770 123.7379 0001398  66.2939 293.8385 14.19923005 39523
