OBJECT_NAME,OBJECT_ID,EPOCH,MEAN_MOTION,ECCENTRICITY,INCLINATION,RA_OF_ASC_NODE,ARG_OF_PERICENTER,MEAN_ANOMALY,EPHEMERIS_TYPE,CLASSIFICATION_TYPE,NORAD_CAT_ID,ELEMENT_SET_NO,REV_AT_EPOCH,BSTAR,MEAN_MOTION_DOT,MEAN_MOTION_DDOT
TIANMU-1 20,2023-208B,2026-07-02T06:34:00.518304,15.32991930,.00055821,97.4465,300.3040,267.0046,93.0558,0,U,58661,999,13973,.30823881E-3,.975E-4,0
TIANMU-1 21,2023-208C,2026-07-02T07:18:06.540768,15.35346868,.00057451,97.4524,303.0813,256.8747,103.1856,0,U,58662,999,13988,.30886858E-3,.10529E-3,0
TIANMU-1 22,2023-208D,2026-07-02T07:11:43.370592,15.31269206,.00021918,97.4519,299.6025,290.1439,69.9566,0,U,58663,999,13964,.28394683E-3,.8499E-4,0
TIANMU-1 15,2024-004A,2026-07-01T20:14:36.994272,15.26798099,.00056891,97.4664,9.0340,288.6642,71.3979,0,U,58700,999,13801,.32265143E-3,.8429E-4,0
TIANMU-1 16,2024-004B,2026-07-02T07:01:19.737120,15.26902119,.00045105,97.4613,8.7069,307.6164,52.4665,0,U,58701,999,13808,.23885246E-3,.6238E-4,0
TIANMU-1 17,2024-004C,2026-07-02T06:40:24.030624,15.26900310,.00041266,97.4640,9.1829,315.9322,44.1587,0,U,58702,999,13807,.2466726E-3,.6444E-4,0
TIANMU-1 18,2024-004D,2026-07-02T07:39:19.276704,15.26819291,.00034089,97.4657,9.4852,289.9408,70.1464,0,U,58703,999,13808,.24593032E-3,.6408E-4,0
INSAT-3DS,2024-033A,2026-07-02T02:23:43.331712,1.00269499,.00014539,0.0710,97.0576,354.6746,306.3808,0,U,58990,999,4721,0,-.145E-5,0
METEOR-M2 4,2024-039A,2026-07-02T07:22:01.609248,14.22431058,.00080238,98.7018,142.4154,120.9511,239.2456,0,U,59051,999,12141,.2521142E-4,.12E-6,0
GOES 19,2024-119A,2026-07-02T05:04:15.902688,1.00271317,.00005303,0.0088,112.2517,44.0208,124.8580,0,U,60133,999,711,0,-.238E-5,0
MTG-S1,2025-143A,2026-07-02T05:25:28.869312,1.00266147,.00030423,0.5919,342.1233,269.6744,109.3795,0,U,64723,999,357,0,.2E-7,0
METOP-SGA1,2025-172A,2026-07-02T03:36:06.655392,14.19817447,.00078052,98.6637,242.5611,10.7823,349.3520,0,U,65159,999,4591,.43938976E-4,.5E-6,0
FENGYUN 3H,2025-219A,2026-07-02T06:16:54.964128,14.19923005,.0001398,98.6770,123.7379,66.2939,293.8385,0,U,65815,999,3952,.4741436E-4,.57E-6,0
